[{"OBJECT_NAME":"YAOGAN-50 02","OBJECT_ID":"2026-051A","EPOCH":"2026-03-23T03:42:07.890336","MEAN_MOTION":13.86640908,"ECCENTRICITY":0.0072308,"INCLINATION":142.0892,"RA_OF_ASC_NODE":272.3752,"ARG_OF_PERICENTER":159.1554,"MEAN_ANOMALY":201.2127,"EPHEMERIS_TYPE":0,"CLASSIFICATION_TYPE":"U","NORAD_CAT_ID":68196,"ELEMENT_SET_NO":999,"REV_AT_EPOCH":107,"BSTAR":6.0891e-5,"MEAN_MOTION_DOT":2.64e-6,"MEAN_MOTION_DDOT":0},{"OBJECT_NAME":"CZ-6A R/B","OBJECT_ID":"2026-051B","EPOCH":"2026-03-24T12:37:19.731648","MEAN_MOTION":14.5636533,"ECCENTRICITY":0.018614,"INCLINATION":142.0321,"RA_OF_ASC_NODE":283.014,"ARG_OF_PERICENTER":157.2784,"MEAN_ANOMALY":203.6302,"EPHEMERIS_TYPE":0,"CLASSIFICATION_TYPE":"U","NORAD_CAT_ID":68197,"ELEMENT_SET_NO":999,"REV_AT_EPOCH":132,"BSTAR":0.00014544,"MEAN_MOTION_DOT":1.129e-5,"MEAN_MOTION_DDOT":0},{"OBJECT_NAME":"2026-052A","OBJECT_ID":"2026-052A","EPOCH":"2026-03-24T12:02:49.600608","MEAN_MOTION":15.09910685,"ECCENTRICITY":0.0012758,"INCLINATION":97.5363,"RA_OF_ASC_NODE":159.6193,"ARG_OF_PERICENTER":234.6357,"MEAN_ANOMALY":125.368,"EPHEMERIS_TYPE":0,"CLASSIFICATION_TYPE":"U","NORAD_CAT_ID":68198,"ELEMENT_SET_NO":999,"REV_AT_EPOCH":126,"BSTAR":0.00041938,"MEAN_MOTION_DOT":6.748e-5,"MEAN_MOTION_DDOT":0},{"OBJECT_NAME":"YUXING-3 06","OBJECT_ID":"2026-052B","EPOCH":"2026-03-24T18:23:18.693312","MEAN_MOTION":15.1004329,"ECCENTRICITY":0.0011881,"INCLINATION":97.5366,"RA_OF_ASC_NODE":159.8806,"ARG_OF_PERICENTER":234.8048,"MEAN_ANOMALY":125.2069,"EPHEMERIS_TYPE":0,"CLASSIFICATION_TYPE":"U","NORAD_CAT_ID":68199,"ELEMENT_SET_NO":999,"REV_AT_EPOCH":130,"BSTAR":0.00030653,"MEAN_MOTION_DOT":4.93e-5,"MEAN_MOTION_DDOT":0},{"OBJECT_NAME":"2026-052C","OBJECT_ID":"2026-052C","EPOCH":"2026-03-24T12:00:33.854976","MEAN_MOTION":15.10170776,"ECCENTRICITY":0.0011568,"INCLINATION":97.536,"RA_OF_ASC_NODE":159.6213,"ARG_OF_PERICENTER":238.2228,"MEAN_ANOMALY":121.7875,"EPHEMERIS_TYPE":0,"CLASSIFICATION_TYPE":"U","NORAD_CAT_ID":68200,"ELEMENT_SET_NO":999,"REV_AT_EPOCH":125,"BSTAR":0.00030177,"MEAN_MOTION_DOT":4.869e-5,"MEAN_MOTION_DDOT":0},{"OBJECT_NAME":"2026-052D","OBJECT_ID":"2026-052D","EPOCH":"2026-03-24T11:59:19.245120","MEAN_MOTION":15.10355094,"ECCENTRICITY":0.0010845,"INCLINATION":97.5362,"RA_OF_ASC_NODE":159.6186,"ARG_OF_PERICENTER":234.0737,"MEAN_ANOMALY":125.9486,"EPHEMERIS_TYPE":0,"CLASSIFICATION_TYPE":"U","NORAD_CAT_ID":68201,"ELEMENT_SET_NO":999,"REV_AT_EPOCH":126,"BSTAR":0.00048409,"MEAN_MOTION_DOT":7.892e-5,"MEAN_MOTION_DDOT":0},{"OBJECT_NAME":"2026-052E","OBJECT_ID":"2026-052E","EPOCH":"2026-03-24T11:59:17.712384","MEAN_MOTION":15.10354978,"ECCENTRICITY":0.0010628,"INCLINATION":97.5366,"RA_OF_ASC_NODE":159.6219,"ARG_OF_PERICENTER":239.211,"MEAN_ANOMALY":120.8074,"EPHEMERIS_TYPE":0,"CLASSIFICATION_TYPE":"U","NORAD_CAT_ID":68202,"ELEMENT_SET_NO":999,"REV_AT_EPOCH":126,"BSTAR":0.00041877,"MEAN_MOTION_DOT":6.817e-5,"MEAN_MOTION_DDOT":0},{"OBJECT_NAME":"2026-052F","OBJECT_ID":"2026-052F","EPOCH":"2026-03-24T11:57:18.506304","MEAN_MOTION":15.10608832,"ECCENTRICITY":0.0009878,"INCLINATION":97.5363,"RA_OF_ASC_NODE":159.6262,"ARG_OF_PERICENTER":231.0838,"MEAN_ANOMALY":128.9512,"EPHEMERIS_TYPE":0,"CLASSIFICATION_TYPE":"U","NORAD_CAT_ID":68203,"ELEMENT_SET_NO":999,"REV_AT_EPOCH":126,"BSTAR":0.00042628,"MEAN_MOTION_DOT":6.988e-5,"MEAN_MOTION_DDOT":0},{"OBJECT_NAME":"2026-052G","OBJECT_ID":"2026-052G","EPOCH":"2026-03-24T11:56:55.079808","MEAN_MOTION":15.10656884,"ECCENTRICITY":0.0009477,"INCLINATION":97.5369,"RA_OF_ASC_NODE":159.6224,"ARG_OF_PERICENTER":234.1224,"MEAN_ANOMALY":125.9127,"EPHEMERIS_TYPE":0,"CLASSIFICATION_TYPE":"U","NORAD_CAT_ID":68204,"ELEMENT_SET_NO":999,"REV_AT_EPOCH":126,"BSTAR":0.00044658,"MEAN_MOTION_DOT":7.334e-5,"MEAN_MOTION_DDOT":0},{"OBJECT_NAME":"KZ-11 R/B","OBJECT_ID":"2026-052H","EPOCH":"2026-03-24T12:57:15.494688","MEAN_MOTION":14.66982565,"ECCENTRICITY":0.0547483,"INCLINATION":97.3414,"RA_OF_ASC_NODE":159.2923,"ARG_OF_PERICENTER":345.9169,"MEAN_ANOMALY":12.7273,"EPHEMERIS_TYPE":0,"CLASSIFICATION_TYPE":"U","NORAD_CAT_ID":68205,"ELEMENT_SET_NO":999,"REV_AT_EPOCH":123,"BSTAR":0.00045238,"MEAN_MOTION_DOT":0.00030346,"MEAN_MOTION_DDOT":1.8856e-6},{"OBJECT_NAME":"2026-052J","OBJECT_ID":"2026-052J","EPOCH":"2026-03-24T12:55:18.445152","MEAN_MOTION":14.67507853,"ECCENTRICITY":0.054583,"INCLINATION":97.3417,"RA_OF_ASC_NODE":159.2938,"ARG_OF_PERICENTER":345.9877,"MEAN_ANOMALY":12.6681,"EPHEMERIS_TYPE":0,"CLASSIFICATION_TYPE":"U","NORAD_CAT_ID":68206,"ELEMENT_SET_NO":999,"REV_AT_EPOCH":123,"BSTAR":0.00083332,"MEAN_MOTION_DOT":0.00056879,"MEAN_MOTION_DDOT":2.2452e-6},{"OBJECT_NAME":"STARLINK-36986","OBJECT_ID":"2026-053A","EPOCH":"2026-03-23T18:00:02.999808","MEAN_MOTION":15.96510579,"ECCENTRICITY":0.00013665,"INCLINATION":97.2798,"RA_OF_ASC_NODE":317.5963,"ARG_OF_PERICENTER":75.8606,"MEAN_ANOMALY":330.9523,"EPHEMERIS_TYPE":0,"CLASSIFICATION_TYPE":"U","NORAD_CAT_ID":68207,"ELEMENT_SET_NO":999,"REV_AT_EPOCH":227,"BSTAR":-0.0052740041,"MEAN_MOTION_DOT":-0.02178594,"MEAN_MOTION_DDOT":0.0013470609},{"OBJECT_NAME":"STARLINK-37009","OBJECT_ID":"2026-053B","EPOCH":"2026-03-23T18:00:02.999808","MEAN_MOTION":15.9665331,"ECCENTRICITY":0.00013692,"INCLINATION":97.279,"RA_OF_ASC_NODE":317.5965,"ARG_OF_PERICENTER":82.1939,"MEAN_ANOMALY":326.2739,"EPHEMERIS_TYPE":0,"CLASSIFICATION_TYPE":"U","NORAD_CAT_ID":68208,"ELEMENT_SET_NO":999,"REV_AT_EPOCH":227,"BSTAR":-0.0052024835,"MEAN_MOTION_DOT":-0.02165852,"MEAN_MOTION_DDOT":0.0013341614},{"OBJECT_NAME":"STARLINK-36948","OBJECT_ID":"2026-053C","EPOCH":"2026-03-23T18:00:02.999808","MEAN_MOTION":15.96799505,"ECCENTRICITY":0.00013253,"INCLINATION":97.279,"RA_OF_ASC_NODE":317.5975,"ARG_OF_PERICENTER":77.4855,"MEAN_ANOMALY":332.854,"EPHEMERIS_TYPE":0,"CLASSIFICATION_TYPE":"U","NORAD_CAT_ID":68209,"ELEMENT_SET_NO":999,"REV_AT_EPOCH":216,"BSTAR":-0.0051375601,"MEAN_MOTION_DOT":-0.02155942,"MEAN_MOTION_DDOT":0.0013246998},{"OBJECT_NAME":"STARLINK-37119","OBJECT_ID":"2026-053D","EPOCH":"2026-03-23T18:00:02.999808","MEAN_MOTION":15.96951025,"ECCENTRICITY":0.00013478,"INCLINATION":97.279,"RA_OF_ASC_NODE":317.5983,"ARG_OF_PERICENTER":78.0615,"MEAN_ANOMALY":334.2663,"EPHEMERIS_TYPE":0,"CLASSIFICATION_TYPE":"U","NORAD_CAT_ID":68210,"ELEMENT_SET_NO":999,"REV_AT_EPOCH":227,"BSTAR":-0.005090219,"MEAN_MOTION_DOT":-0.02153772,"MEAN_MOTION_DDOT":0.001324452},{"OBJECT_NAME":"STARLINK-37120","OBJECT_ID":"2026-053E","EPOCH":"2026-03-23T18:00:02.999808","MEAN_MOTION":15.97103573,"ECCENTRICITY":0.00013499,"INCLINATION":97.2786,"RA_OF_ASC_NODE":317.5992,"ARG_OF_PERICENTER":73.4169,"MEAN_ANOMALY":341.0884,"EPHEMERIS_TYPE":0,"CLASSIFICATION_TYPE":"U","NORAD_CAT_ID":68211,"ELEMENT_SET_NO":999,"REV_AT_EPOCH":225,"BSTAR":-0.0050466286,"MEAN_MOTION_DOT":-0.0215315,"MEAN_MOTION_DDOT":0.0013260529}]
