YAOGAN-50 02            
1 68196U 26051A   26082.15425799  .00000264  00000+0  60891-4 0  9993
2 68196 142.0892 272.3752 0072308 159.1554 201.2127 13.86640908  1074
CZ-6A R/B               
1 68197U 26051B   26083.52592282  .00001129  00000+0  14544-3 0  9992
2 68197 142.0321 283.0140 0186140 157.2784 203.6302 14.56365330  1326
2026-052A               
1 68198U 26052A   26083.50196297  .00006748  00000+0  41938-3 0  9997
2 68198  97.5363 159.6193 0012758 234.6357 125.3680 15.09910685  1262
YUXING-3 06             
1 68199U 26052B   26083.76618858  .00004930  00000+0  30653-3 0  9991
2 68199  97.5366 159.8806 0011881 234.8048 125.2069 15.10043290  1300
2026-052C               
1 68200U 26052C   26083.50039184  .00004869  00000+0  30177-3 0  9997
2 68200  97.5360 159.6213 0011568 238.2228 121.7875 15.10170776  1257
2026-052D               
1 68201U 26052D   26083.49952830  .00007892  00000+0  48409-3 0  9994
2 68201  97.5362 159.6186 0010845 234.0737 125.9486 15.10355094  1268
2026-052E               
1 68202U 26052E   26083.49951056  .00006817  00000+0  41877-3 0  9992
2 68202  97.5366 159.6219 0010628 239.2110 120.8074 15.10354978  1268
2026-052F               
1 68203U 26052F   26083.49813086  .00006988  00000+0  42628-3 0  9997
2 68203  97.5363 159.6262 0009878 231.0838 128.9512 15.10608832  1263
2026-052G               
1 68204U 26052G   26083.49785972  .00007334  00000+0  44658-3 0  9991
2 68204  97.5369 159.6224 0009477 234.1224 125.9127 15.10656884  1265
KZ-11 R/B               
1 68205U 26052H   26083.53976267  .00030346  18856-5  45238-3 0  9994
2 68205  97.3414 159.2923 0547483 345.9169  12.7273 14.66982565  1230
2026-052J               
1 68206U 26052J   26083.53840793  .00056879  22452-5  83332-3 0  9992
2 68206  97.3417 159.2938 0545830 345.9877  12.6681 14.67507853  1236
STARLINK-36986          
1 68207U 26053A   26082.75003472 -.02178594  13471-2 -52740-2 0  9991
2 68207  97.2798 317.5963 0001366  75.8606 330.9523 15.96510579  2273
STARLINK-37009          
1 68208U 26053B   26082.75003472 -.02165852  13342-2 -52025-2 0  9998
2 68208  97.2790 317.5965 0001369  82.1939 326.2739 15.96653310  2279
STARLINK-36948          
1 68209U 26053C   26082.75003472 -.02155942  13247-2 -51376-2 0  9990
2 68209  97.2790 317.5975 0001325  77.4855 332.8540 15.96799505  2165
STARLINK-37119          
1 68210U 26053D   26082.75003472 -.02153772  13245-2 -50902-2 0  9993
2 68210  97.2790 317.5983 0001347  78.0615 334.2663 15.96951025  2272
STARLINK-37120          
1 68211U 26053E   26082.75003472 -.02153150  13261-2 -50466-2 0  9997
2 68211  97.2786 317.5992 0001349  73.4169 341.0884 15.97103573  2250
